IRIDIUM 111             
1 41926U 17003K   23362.78136798  .00000053  00000+0  11728-4 0  9998
2 41926  86.3971 105.1016 0002374  94.8874 265.2593 14.34216168364054
IRIDIUM 113             
1 42803U 17039A   23363.11017293  .00000093  00000+0  26158-4 0  9995
2 42803  86.3977 338.7118 0002404  93.2753 266.8718 14.34218394342038
IRIDIUM 123             
1 42804U 17039B   23362.94234322  .00000380  00000+0  12855-3 0  9997
2 42804  86.3972  10.2718 0002504  85.4191 274.7291 14.34215202340770
IRIDIUM 120             
1 42805U 17039C   23363.03406441 -.00000045  00000+0 -23134-4 0  9995
2 42805  86.3962 338.6434 0002167  88.6083 271.5361 14.34216737342018
IRIDIUM 115             
1 42806U 17039D   23362.88714163  .00000579  00000+0  16605-3 0  9995
2 42806  86.4503 338.7041 0002441  90.4759 269.6722 14.43274634344260
IRIDIUM 118             
1 42807U 17039E   23363.11359485  .00000068  00000+0  17227-4 0  9990
2 42807  86.3968  10.2041 0002235  92.1821 267.9631 14.34213086340807
IRIDIUM 117             
1 42808U 17039F   23363.13261740  .00000720  00000+0  25012-3 0  9994
2 42808  86.3967  10.1620 0002344  88.1524 271.9940 14.34216372340837
